0 FENGYUN 1C DEB
1 30827U 99025AVM 13280.61537272  .00002172  00000-0  14233-2 0  2453
2 30827 098.8868 212.1801 0069677 150.8418 334.5755 14.01926852338190
0 FENGYUN 1C DEB
1 30827U 99025AVM 13283.65939088  .00000272  00000-0  17275-3 0  2472
2 30827 098.8317 215.1878 0088598 166.7061 193.6950 14.01933123338627
0 FENGYUN 1C DEB
1 30827U 99025AVM 13283.68275733  .00002416  00000-0  15789-2 0  2463
2 30827 098.8869 215.1700 0070069 141.7897 336.0829 14.01949140338621
0 FENGYUN 1C DEB
1 30827U 99025AVM 13286.32587742  .00002507  00000-0  16375-2 0  2477
2 30827 098.8855 217.7460 0070154 134.4596 355.9469 14.01957828338999
0 FENGYUN 1C DEB
1 30827U 99025AVM 13288.32421199  .00003390  00000-0  22033-2 0  2482
2 30827 098.8862 219.6946 0070443 129.7171 000.8714 14.01970202339276
0 FENGYUN 1C DEB
1 30827U 99025AVM 13292.09412366  .00002925  00000-0  19036-2 0  2490
2 30827 098.8870 223.3700 0070646 120.3687 306.9776 14.01989548339809
0 FENGYUN 1C DEB
1 30827U 99025AVM 13293.79891278  .00003227  00000-0  20964-2 0  2501
2 30827 098.8866 225.0312 0071119 114.3408 272.6479 14.02000255340049
